[{"OBJECT_NAME":"TERRASAR-X","OBJECT_ID":"2007-026A","EPOCH":"2026-03-06T13:39:16.034976","MEAN_MOTION":15.1914447,"ECCENTRICITY":0.00018758,"INCLINATION":97.4471,"RA_OF_ASC_NODE":74.7375,"ARG_OF_PERICENTER":88.2071,"MEAN_ANOMALY":271.9379,"EPHEMERIS_TYPE":0,"CLASSIFICATION_TYPE":"U","NORAD_CAT_ID":31698,"ELEMENT_SET_NO":999,"REV_AT_EPOCH":3764,"BSTAR":9.3915277e-5,"MEAN_MOTION_DOT":1.905e-5,"MEAN_MOTION_DDOT":0},{"OBJECT_NAME":"WORLDVIEW-1 (WV-1)","OBJECT_ID":"2007-041A","EPOCH":"2026-03-06T19:32:19.787424","MEAN_MOTION":15.24470326,"ECCENTRICITY":0.000302,"INCLINATION":97.3833,"RA_OF_ASC_NODE":187.0359,"ARG_OF_PERICENTER":145.8076,"MEAN_ANOMALY":214.3357,"EPHEMERIS_TYPE":0,"CLASSIFICATION_TYPE":"U","NORAD_CAT_ID":32060,"ELEMENT_SET_NO":999,"REV_AT_EPOCH":2728,"BSTAR":0.00044724,"MEAN_MOTION_DOT":0.00010922,"MEAN_MOTION_DDOT":0},{"OBJECT_NAME":"YAOGAN-3","OBJECT_ID":"2007-055A","EPOCH":"2026-03-06T21:20:26.534400","MEAN_MOTION":14.90342197,"ECCENTRICITY":0.000177,"INCLINATION":97.8273,"RA_OF_ASC_NODE":96.749,"ARG_OF_PERICENTER":85.047,"MEAN_ANOMALY":275.095,"EPHEMERIS_TYPE":0,"CLASSIFICATION_TYPE":"U","NORAD_CAT_ID":32289,"ELEMENT_SET_NO":999,"REV_AT_EPOCH":99062,"BSTAR":0.00019873,"MEAN_MOTION_DOT":1.877e-5,"MEAN_MOTION_DDOT":0},{"OBJECT_NAME":"COSMO-SKYMED 2","OBJECT_ID":"2007-059A","EPOCH":"2026-03-06T19:33:42.239808","MEAN_MOTION":14.82161869,"ECCENTRICITY":0.0001293,"INCLINATION":97.8862,"RA_OF_ASC_NODE":250.8927,"ARG_OF_PERICENTER":83.4319,"MEAN_ANOMALY":276.7042,"EPHEMERIS_TYPE":0,"CLASSIFICATION_TYPE":"U","NORAD_CAT_ID":32376,"ELEMENT_SET_NO":999,"REV_AT_EPOCH":98683,"BSTAR":0.00010923,"MEAN_MOTION_DOT":8.18e-6,"MEAN_MOTION_DDOT":0},{"OBJECT_NAME":"RADARSAT-2","OBJECT_ID":"2007-061A","EPOCH":"2026-03-06T21:07:41.183328","MEAN_MOTION":14.29963259,"ECCENTRICITY":0.0001283,"INCLINATION":98.5813,"RA_OF_ASC_NODE":74.2602,"ARG_OF_PERICENTER":85.5618,"MEAN_ANOMALY":274.5711,"EPHEMERIS_TYPE":0,"CLASSIFICATION_TYPE":"U","NORAD_CAT_ID":32382,"ELEMENT_SET_NO":999,"REV_AT_EPOCH":95133,"BSTAR":-8.5878e-5,"MEAN_MOTION_DOT":-2.65e-6,"MEAN_MOTION_DDOT":0},{"OBJECT_NAME":"CARTOSAT-2A","OBJECT_ID":"2008-021A","EPOCH":"2026-03-06T19:58:28.344000","MEAN_MOTION":14.7909409,"ECCENTRICITY":0.0013299,"INCLINATION":97.7778,"RA_OF_ASC_NODE":117.9746,"ARG_OF_PERICENTER":84.9445,"MEAN_ANOMALY":275.3285,"EPHEMERIS_TYPE":0,"CLASSIFICATION_TYPE":"U","NORAD_CAT_ID":32783,"ELEMENT_SET_NO":999,"REV_AT_EPOCH":96367,"BSTAR":0.00015028,"MEAN_MOTION_DOT":1.064e-5,"MEAN_MOTION_DDOT":0},{"OBJECT_NAME":"HUANJING 1A (HJ-1A)","OBJECT_ID":"2008-041A","EPOCH":"2026-03-06T20:53:05.879616","MEAN_MOTION":14.83710597,"ECCENTRICITY":0.0020602,"INCLINATION":97.6634,"RA_OF_ASC_NODE":55.7188,"ARG_OF_PERICENTER":112.2186,"MEAN_ANOMALY":248.1216,"EPHEMERIS_TYPE":0,"CLASSIFICATION_TYPE":"U","NORAD_CAT_ID":33320,"ELEMENT_SET_NO":999,"REV_AT_EPOCH":94323,"BSTAR":0.00031871,"MEAN_MOTION_DOT":2.593e-5,"MEAN_MOTION_DDOT":0},{"OBJECT_NAME":"HUANJING 1B (HJ-1B)","OBJECT_ID":"2008-041B","EPOCH":"2026-03-06T20:41:45.005280","MEAN_MOTION":14.83092767,"ECCENTRICITY":0.0036931,"INCLINATION":97.6477,"RA_OF_ASC_NODE":59.1815,"ARG_OF_PERICENTER":156.9769,"MEAN_ANOMALY":203.311,"EPHEMERIS_TYPE":0,"CLASSIFICATION_TYPE":"U","NORAD_CAT_ID":33321,"ELEMENT_SET_NO":999,"REV_AT_EPOCH":94324,"BSTAR":0.00016222,"MEAN_MOTION_DOT":1.285e-5,"MEAN_MOTION_DDOT":0},{"OBJECT_NAME":"GEOEYE 1","OBJECT_ID":"2008-042A","EPOCH":"2026-03-06T19:37:16.385664","MEAN_MOTION":14.6476321,"ECCENTRICITY":0.0004175,"INCLINATION":98.1211,"RA_OF_ASC_NODE":141.0424,"ARG_OF_PERICENTER":36.2134,"MEAN_ANOMALY":323.9351,"EPHEMERIS_TYPE":0,"CLASSIFICATION_TYPE":"U","NORAD_CAT_ID":33331,"ELEMENT_SET_NO":999,"REV_AT_EPOCH":93516,"BSTAR":0.00015378,"MEAN_MOTION_DOT":7.72e-6,"MEAN_MOTION_DDOT":0},{"OBJECT_NAME":"THEOS","OBJECT_ID":"2008-049A","EPOCH":"2026-03-06T19:22:38.147808","MEAN_MOTION":14.20115394,"ECCENTRICITY":0.0001057,"INCLINATION":98.5705,"RA_OF_ASC_NODE":126.3587,"ARG_OF_PERICENTER":89.816,"MEAN_ANOMALY":270.3138,"EPHEMERIS_TYPE":0,"CLASSIFICATION_TYPE":"U","NORAD_CAT_ID":33396,"ELEMENT_SET_NO":999,"REV_AT_EPOCH":90343,"BSTAR":-4.5411e-5,"MEAN_MOTION_DOT":-1.39e-6,"MEAN_MOTION_DDOT":0},{"OBJECT_NAME":"COSMO-SKYMED 3","OBJECT_ID":"2008-054A","EPOCH":"2026-03-06T20:42:47.124288","MEAN_MOTION":15.06214596,"ECCENTRICITY":0.001449,"INCLINATION":97.8421,"RA_OF_ASC_NODE":282.7018,"ARG_OF_PERICENTER":252.2786,"MEAN_ANOMALY":107.6859,"EPHEMERIS_TYPE":0,"CLASSIFICATION_TYPE":"U","NORAD_CAT_ID":33412,"ELEMENT_SET_NO":999,"REV_AT_EPOCH":94153,"BSTAR":0.00031871,"MEAN_MOTION_DOT":4.617e-5,"MEAN_MOTION_DDOT":0},{"OBJECT_NAME":"YAOGAN-4","OBJECT_ID":"2008-061A","EPOCH":"2026-03-06T19:38:50.298144","MEAN_MOTION":14.82968178,"ECCENTRICITY":0.0015495,"INCLINATION":97.9251,"RA_OF_ASC_NODE":0.1405,"ARG_OF_PERICENTER":47.9855,"MEAN_ANOMALY":312.2675,"EPHEMERIS_TYPE":0,"CLASSIFICATION_TYPE":"U","NORAD_CAT_ID":33446,"ELEMENT_SET_NO":999,"REV_AT_EPOCH":93049,"BSTAR":0.00025032,"MEAN_MOTION_DOT":1.983e-5,"MEAN_MOTION_DDOT":0},{"OBJECT_NAME":"GOSAT (IBUKI)","OBJECT_ID":"2009-002A","EPOCH":"2026-03-06T07:40:35.491872","MEAN_MOTION":14.67546808,"ECCENTRICITY":0.00014099,"INCLINATION":98.0771,"RA_OF_ASC_NODE":177.7598,"ARG_OF_PERICENTER":85.5388,"MEAN_ANOMALY":274.5977,"EPHEMERIS_TYPE":0,"CLASSIFICATION_TYPE":"U","NORAD_CAT_ID":33492,"ELEMENT_SET_NO":999,"REV_AT_EPOCH":91637,"BSTAR":8.2415268e-5,"MEAN_MOTION_DOT":4.19e-6,"MEAN_MOTION_DDOT":0},{"OBJECT_NAME":"DEIMOS-1","OBJECT_ID":"2009-041A","EPOCH":"2026-03-06T19:57:16.426368","MEAN_MOTION":14.75111819,"ECCENTRICITY":0.0002135,"INCLINATION":97.7252,"RA_OF_ASC_NODE":227.5731,"ARG_OF_PERICENTER":122.115,"MEAN_ANOMALY":238.0267,"EPHEMERIS_TYPE":0,"CLASSIFICATION_TYPE":"U","NORAD_CAT_ID":35681,"ELEMENT_SET_NO":999,"REV_AT_EPOCH":89179,"BSTAR":0.00020186,"MEAN_MOTION_DOT":1.314e-5,"MEAN_MOTION_DDOT":0},{"OBJECT_NAME":"DUBAISAT-1","OBJECT_ID":"2009-041B","EPOCH":"2026-03-06T18:59:46.599648","MEAN_MOTION":14.74896965,"ECCENTRICITY":0.0011224,"INCLINATION":97.9869,"RA_OF_ASC_NODE":200.2828,"ARG_OF_PERICENTER":44.9611,"MEAN_ANOMALY":315.2504,"EPHEMERIS_TYPE":0,"CLASSIFICATION_TYPE":"U","NORAD_CAT_ID":35682,"ELEMENT_SET_NO":999,"REV_AT_EPOCH":89000,"BSTAR":0.0002698,"MEAN_MOTION_DOT":1.762e-5,"MEAN_MOTION_DDOT":0},{"OBJECT_NAME":"OCEANSAT-2","OBJECT_ID":"2009-051A","EPOCH":"2026-03-06T21:39:44.040384","MEAN_MOTION":13.99636701,"ECCENTRICITY":0.001711,"INCLINATION":98.2275,"RA_OF_ASC_NODE":62.9949,"ARG_OF_PERICENTER":159.6556,"MEAN_ANOMALY":200.5295,"EPHEMERIS_TYPE":0,"CLASSIFICATION_TYPE":"U","NORAD_CAT_ID":35931,"ELEMENT_SET_NO":999,"REV_AT_EPOCH":86502,"BSTAR":0.00012125,"MEAN_MOTION_DOT":1.4e-6,"MEAN_MOTION_DDOT":0},{"OBJECT_NAME":"WORLDVIEW-2 (WV-2)","OBJECT_ID":"2009-055A","EPOCH":"2026-03-06T19:18:07.022880","MEAN_MOTION":14.37909203,"ECCENTRICITY":0.0004887,"INCLINATION":98.4698,"RA_OF_ASC_NODE":140.711,"ARG_OF_PERICENTER":152.8675,"MEAN_ANOMALY":207.2769,"EPHEMERIS_TYPE":0,"CLASSIFICATION_TYPE":"U","NORAD_CAT_ID":35946,"ELEMENT_SET_NO":999,"REV_AT_EPOCH":86093,"BSTAR":8.7403e-5,"MEAN_MOTION_DOT":2.2e-6,"MEAN_MOTION_DDOT":0}]
