TERRASAR-X              
1 31698U 07026A   26065.56893559  .00001905  00000+0  93915-4 0  9996
2 31698  97.4471  74.7375 0001875  88.2071 271.9379 15.19144470 37645
WORLDVIEW-1 (WV-1)      
1 32060U 07041A   26065.81411791  .00010922  00000+0  44724-3 0  9991
2 32060  97.3833 187.0359 0003020 145.8076 214.3357 15.24470326 27283
YAOGAN-3                
1 32289U 07055A   26065.88919600  .00001877  00000+0  19873-3 0  9994
2 32289  97.8273  96.7490 0001770  85.0470 275.0950 14.90342197990620
COSMO-SKYMED 2          
1 32376U 07059A   26065.81507222  .00000818  00000+0  10923-3 0  9992
2 32376  97.8862 250.8927 0001293  83.4319 276.7042 14.82161869986837
RADARSAT-2              
1 32382U 07061A   26065.88033777 -.00000265  00000+0 -85878-4 0  9998
2 32382  98.5813  74.2602 0001283  85.5618 274.5711 14.29963259951330
CARTOSAT-2A             
1 32783U 08021A   26065.83227250  .00001064  00000+0  15028-3 0  9991
2 32783  97.7778 117.9746 0013299  84.9445 275.3285 14.79094090963679
HUANJING 1A (HJ-1A)     
1 33320U 08041A   26065.87020694  .00002593  00000+0  31871-3 0  9990
2 33320  97.6634  55.7188 0020602 112.2186 248.1216 14.83710597943233
HUANJING 1B (HJ-1B)     
1 33321U 08041B   26065.86232645  .00001285  00000+0  16222-3 0  9991
2 33321  97.6477  59.1815 0036931 156.9769 203.3110 14.83092767943247
GEOEYE 1                
1 33331U 08042A   26065.81755076  .00000772  00000+0  15378-3 0  9997
2 33331  98.1211 141.0424 0004175  36.2134 323.9351 14.64763210935163
THEOS                   
1 33396U 08049A   26065.80738597 -.00000139  00000+0 -45411-4 0  9994
2 33396  98.5705 126.3587 0001057  89.8160 270.3138 14.20115394903430
COSMO-SKYMED 3          
1 33412U 08054A   26065.86304542  .00004617  00000+0  31871-3 0  9991
2 33412  97.8421 282.7018 0014490 252.2786 107.6859 15.06214596941531
YAOGAN-4                
1 33446U 08061A   26065.81863771  .00001983  00000+0  25032-3 0  9990
2 33446  97.9251   0.1405 0015495  47.9855 312.2675 14.82968178930492
GOSAT (IBUKI)           
1 33492U 09002A   26065.31985523  .00000419  00000+0  82415-4 0  9994
2 33492  98.0771 177.7598 0001409  85.5388 274.5977 14.67546808916376
DEIMOS-1                
1 35681U 09041A   26065.83144012  .00001314  00000+0  20186-3 0  9997
2 35681  97.7252 227.5731 0002135 122.1150 238.0267 14.75111819891797
DUBAISAT-1              
1 35682U 09041B   26065.79151157  .00001762  00000+0  26980-3 0  9996
2 35682  97.9869 200.2828 0011224  44.9611 315.2504 14.74896965890007
OCEANSAT-2              
1 35931U 09051A   26065.90259306  .00000140  00000+0  12125-3 0  9997
2 35931  98.2275  62.9949 0017110 159.6556 200.5295 13.99636701865021
WORLDVIEW-2 (WV-2)      
1 35946U 09055A   26065.80424795  .00000220  00000+0  87403-4 0  9993
2 35946  98.4698 140.7110 0004887 152.8675 207.2769 14.37909203860935
